$$SOE
2459580.500000000, A.D. 2022-Jan-01 00:00:00.0000, -1.327604495448628E+08, 5.308363778327412E+08, 4.498904489767519E+07,
2459587.500000000, A.D. 2022-Jan-08 00:00:00.0000, -1.401914670911916E+08, 5.287608080086011E+08, 4.851447375546294E+07,
2459594.500000000, A.D. 2022-Jan-15 00:00:00.0000, -1.475814489732064E+08, 5.265302538421115E+08, 5.202568319206291E+07,
2459601.500000000, A.D. 2022-Jan-22 00:00:00.0000, -1.549282521398054E+08, 5.241454644447477E+08, 5.552165313276494E+07,
2459608.500000000, A.D. 2022-Jan-29 00:00:00.0000, -1.622297408568162E+08, 5.216072105368424E+08, 5.900136669080600E+07,
2459615.500000000, A.D. 2022-Feb-05 00:00:00.0000, -1.694837884681611E+08, 5.189162838682408E+08, 6.246381010598904E+07,
2459622.500000000, A.D. 2022-Feb-12 00:00:00.0000, -1.766882769927042E+08, 5.160734955934693E+08, 6.590797240067834E+07,
2459629.500000000, A.D. 2022-Feb-19 00:00:00.0000, -1.838410958826730E+08, 5.130796759724559E+08, 6.933284506860673E+07,
2459636.500000000, A.D. 2022-Feb-26 00:00:00.0000, -1.909401412545615E+08, 5.099356746751498E+08, 7.273742185782245E+07,
2459643.500000000, A.D. 2022-Mar-05 00:00:00.0000, -1.979833154326892E+08, 5.066423610732045E+08, 7.612069858267790E+07,
2459650.500000000, A.D. 2022-Mar-12 00:00:00.0000, -2.049685265833948E+08, 5.032006244528093E+08, 7.948167293898496E+07,
2459657.500000000, A.D. 2022-Mar-19 00:00:00.0000, -2.118936883687843E+08, 4.996113741765515E+08, 8.281934431791118E+07,
2459664.500000000, A.D. 2022-Mar-26 00:00:00.0000, -2.187567195977375E+08, 4.958755397882721E+08, 8.613271361587545E+07,
2459671.500000000, A.D. 2022-Apr-02 00:00:00.0000, -2.255555438065563E+08, 4.919940710050253E+08, 8.942078302947333E+07,
2459678.500000000, A.D. 2022-Apr-09 00:00:00.0000, -2.322880884974881E+08, 4.879679376009485E+08, 9.268255581072685E+07,
2459685.500000000, A.D. 2022-Apr-16 00:00:00.0000, -2.389522836785116E+08, 4.837981298372244E+08, 9.591703600328857E+07,
2459692.500000000, A.D. 2022-Apr-23 00:00:00.0000, -2.455460609739803E+08, 4.794856605230951E+08, 9.912322836471996E+07,
2459699.500000000, A.D. 2022-Apr-30 00:00:00.0000, -2.520673551762067E+08, 4.750315664635118E+08, 1.023001384630280E+08,
2459706.500000000, A.D. 2022-May-07 00:00:00.0000, -2.585141051747397E+08, 4.704369073190160E+08, 1.054467725050332E+08,
2459713.500000000, A.D. 2022-May-14 00:00:00.0000, -2.648842528750610E+08, 4.657027649154443E+08, 1.085621370174446E+08,
2459720.500000000, A.D. 2022-May-21 00:00:00.0000, -2.711757421389175E+08, 4.608302437633359E+08, 1.116452386293849E+08,
2459727.500000000, A.D. 2022-May-28 00:00:00.0000, -2.773865182252597E+08, 4.558204718290220E+08, 1.146950839221998E+08,
2459734.500000000, A.D. 2022-Jun-04 00:00:00.0000, -2.835145274548784E+08, 4.506746012447287E+08, 1.177106792957354E+08,
2459741.500000000, A.D. 2022-Jun-11 00:00:00.0000, -2.895577169545171E+08, 4.453938089600930E+08, 1.206910308382172E+08,
2459748.500000000, A.D. 2022-Jun-18 00:00:00.0000, -2.955140344423063E+08, 4.399792973487793E+08, 1.236351441975464E+08,
2459755.500000000, A.D. 2022-Jun-25 00:00:00.0000, -3.013814280256568E+08, 4.344322947375083E+08, 1.265420244489347E+08,
2459762.500000000, A.D. 2022-Jul-02 00:00:00.0000, -3.071578458781584E+08, 4.287540557922623E+08, 1.294106759415649E+08,
2459769.500000000, A.D. 2022-Jul-09 00:00:00.0000, -3.128412354058963E+08, 4.229458619390566E+08, 1.322401021033343E+08,
2459776.500000000, A.D. 2022-Jul-16 00:00:00.0000, -3.184295419593926E+08, 4.170090229025488E+08, 1.350293052977582E+08,
2459783.500000000, A.D. 2022-Jul-23 00:00:00.0000, -3.239207092908897E+08, 4.109448794412745E+08, 1.377772869418671E+08,
2459790.500000000, A.D. 2022-Jul-30 00:00:00.0000, -3.293126816732185E+08, 4.047548039266596E+08, 1.404830476040080E+08,
2459797.500000000, A.D. 2022-Aug-06 00:00:00.0000, -3.346034040815039E+08, 3.984401994133521E+08, 1.431455868046097E+08,
2459804.500000000, A.D. 2022-Aug-13 00:00:00.0000, -3.397908212626383E+08, 3.920024999552574E+08, 1.457639028212668E+08,
2459811.500000000, A.D. 2022-Aug-20 00:00:00.0000, -3.448728772634449E+08, 3.854431716652802E+08, 1.483369926021280E+08,
2459818.500000000, A.D. 2022-Aug-27 00:00:00.0000, -3.498475153499138E+08, 3.787637137932364E+08, 1.508638517227762E+08,
2459825.500000000, A.D. 2022-Sep-03 00:00:00.0000, -3.547126780698874E+08, 3.719656597117575E+08, 1.533434743552873E+08,
2459832.500000000, A.D. 2022-Sep-10 00:00:00.0000, -3.594663073695093E+08, 3.650505778341072E+08, 1.557748532434002E+08,
2459839.500000000, A.D. 2022-Sep-17 00:00:00.0000, -3.641063447347227E+08, 3.580200724618676E+08, 1.581569796810504E+08,
2459846.500000000, A.D. 2022-Sep-24 00:00:00.0000, -3.686307312986202E+08, 3.508757845111638E+08, 1.604888434846951E+08,
2459853.500000000, A.D. 2022-Oct-01 00:00:00.0000, -3.730374076764790E+08, 3.436193920948701E+08, 1.627694329359600E+08,
2459860.500000000, A.D. 2022-Oct-08 00:00:00.0000, -3.773243131233854E+08, 3.362526114829938E+08, 1.649977347005806E+08,
2459867.500000000, A.D. 2022-Oct-15 00:00:00.0000, -3.814893849488370E+08, 3.287771996411071E+08, 1.671727339081054E+08,
2459874.500000000, A.D. 2022-Oct-22 00:00:00.0000, -3.855305603723648E+08, 3.211949566645278E+08, 1.692934144561673E+08,
2459881.500000000, A.D. 2022-Oct-29 00:00:00.0000, -3.894457783231951E+08, 3.135077255161379E+08, 1.713587590989206E+08,
2459888.500000000, A.D. 2022-Nov-05 00:00:00.0000, -3.932329790851896E+08, 3.057173918084850E+08, 1.733677493509527E+08,
2459895.500000000, A.D. 2022-Nov-12 00:00:00.0000, -3.968901037542512E+08, 2.978258848970808E+08, 1.753193654910436E+08,
2459902.500000000, A.D. 2022-Nov-19 00:00:00.0000, -4.004150942299495E+08, 2.898351793314705E+08, 1.772125866548216E+08,
2459909.500000000, A.D. 2022-Nov-26 00:00:00.0000, -4.038058934809211E+08, 2.817472962671190E+08, 1.790463909605755E+08,
2459916.500000000, A.D. 2022-Dec-03 00:00:00.0000, -4.070604459198843E+08, 2.735643048265162E+08, 1.808197556527865E+08,
2459923.500000000, A.D. 2022-Dec-10 00:00:00.0000, -4.101766978448974E+08, 2.652883234280121E+08, 1.825316572616227E+08,
2459930.500000000, A.D. 2022-Dec-17 00:00:00.0000, -4.131525979245005E+08, 2.569215210572103E+08, 1.841810717751302E+08,
2459937.500000000, A.D. 2022-Dec-24 00:00:00.0000, -4.159860976198266E+08, 2.484661184148690E+08, 1.857669748098597E+08,
2459944.500000000, A.D. 2022-Dec-31 00:00:00.0000, -4.186751511885871E+08, 2.399243890485009E+08, 1.872883417571172E+08,
2459951.500000000, A.D. 2023-Jan-07 00:00:00.0000, -4.212177151509475E+08, 2.312986614295008E+08, 1.887441479734896E+08,
2459958.500000000, A.D. 2023-Jan-14 00:00:00.0000, -4.236117491877261E+08, 2.225913224720317E+08, 1.901333692383319E+08,
2459965.500000000, A.D. 2023-Jan-21 00:00:00.0000, -4.258552191193597E+08, 2.138048193212297E+08, 1.914549822802370E+08,
2459972.500000000, A.D. 2023-Jan-28 00:00:00.0000, -4.279460982998372E+08, 2.049416592152666E+08, 1.927079650214454E+08,
2459979.500000000, A.D. 2023-Feb-04 00:00:00.0000, -4.298823676364084E+08, 1.960044104474074E+08, 1.938912968075493E+08,
2459986.500000000, A.D. 2023-Feb-11 00:00:00.0000, -4.316620160342749E+08, 1.869957042330330E+08, 1.950039587731451E+08,
2459993.500000000, A.D. 2023-Feb-18 00:00:00.0000, -4.332830413334844E+08, 1.779182366579013E+08, 1.960449342841427E+08,
2460000.500000000, A.D. 2023-Feb-25 00:00:00.0000, -4.347434514785779E+08, 1.687747705450743E+08, 1.970132094212179E+08,
2460007.500000000, A.D. 2023-Mar-04 00:00:00.0000, -4.360412658221201E+08, 1.595681372579661E+08, 1.979077734982282E+08,
2460014.500000000, A.D. 2023-Mar-11 00:00:00.0000, -4.371745165370997E+08, 1.503012384382290E+08, 1.987276196147873E+08,
2460021.500000000, A.D. 2023-Mar-18 00:00:00.0000, -4.381412500950550E+08, 1.409770476269040E+08, 1.994717452366339E+08,
2460028.500000000, A.D. 2023-Mar-25 00:00:00.0000, -4.389395286107812E+08, 1.315986117192575E+08, 2.001391527835173E+08,
2460035.500000000, A.D. 2023-Apr-01 00:00:00.0000, -4.395674306334333E+08, 1.221690526440289E+08, 2.007288502202111E+08,
2460042.500000000, A.D. 2023-Apr-08 00:00:00.0000, -4.400230520040525E+08, 1.126915704889355E+08, 2.012398518098026E+08,
2460049.500000000, A.D. 2023-Apr-15 00:00:00.0000, -4.403045091220709E+08, 1.031694469629440E+08, 2.016711791564714E+08,
2460056.500000000, A.D. 2023-Apr-22 00:00:00.0000, -4.404099428173463E+08, 9.360604614082989E+07, 2.020218621260854E+08,
2460063.500000000, A.D. 2023-Apr-29 00:00:00.0000, -4.403375200966189E+08, 8.400481474030423E+07, 2.022909395802039E+08,
2460070.500000000, A.D. 2023-May-06 00:00:00.0000, -4.400854355283030E+08, 7.436928370847689E+07, 2.024774602319852E+08,
2460077.500000000, A.D. 2023-May-13 00:00:00.0000, -4.396519132473294E+08, 6.470307021911199E+07, 2.025804836426643E+08,
2460084.500000000, A.D. 2023-May-20 00:00:00.0000, -4.390352093508261E+08, 5.500987958455634E+07, 2.025990812990660E+08,
2460091.500000000, A.D. 2023-May-27 00:00:00.0000, -4.382336144957196E+08, 4.529350704693496E+07, 2.025323377536561E+08,
2460098.500000000, A.D. 2023-Jun-03 00:00:00.0000, -4.372454566455488E+08, 3.555783946741042E+07, 2.023793518258216E+08,
2460105.500000000, A.D. 2023-Jun-10 00:00:00.0000, -4.360691039482386E+08, 2.580685689187073E+07, 2.021392378635916E+08,
2460112.500000000, A.D. 2023-Jun-17 00:00:00.0000, -4.347029676616943E+08, 1.604463392492197E+07, 2.018111270557930E+08,
2460119.500000000, A.D. 2023-Jun-24 00:00:00.0000, -4.331455048129981E+08, 6.275340959734216E+06, 2.013941687729708E+08,
2460126.500000000, A.D. 2023-Jul-01 00:00:00.0000, -4.313952203432764E+08, -3.496753916646689E+06, 2.008875319842628E+08,
2460133.500000000, A.D. 2023-Jul-08 00:00:00.0000, -4.294506704170703E+08, -1.326728153004888E+07, 2.002904069733269E+08,
2460140.500000000, A.D. 2023-Jul-15 00:00:00.0000, -4.273104681783649E+08, -2.303176957849392E+07, 1.996020072420431E+08,
2460147.500000000, A.D. 2023-Jul-22 00:00:00.0000, -4.249732884372206E+08, -3.278564298906006E+07, 1.988215711975379E+08,
$$EOE